[{"OBJECT_NAME":"HYDRA-W","OBJECT_ID":"2025-052BL","EPOCH":"2026-03-09T06:09:33.308928","MEAN_MOTION":15.62903885,"ECCENTRICITY":0.00091126,"INCLINATION":97.3927,"RA_OF_ASC_NODE":329.3965,"ARG_OF_PERICENTER":107.1858,"MEAN_ANOMALY":253.0398,"EPHEMERIS_TYPE":0,"CLASSIFICATION_TYPE":"U","NORAD_CAT_ID":63490,"ELEMENT_SET_NO":999,"REV_AT_EPOCH":5512,"BSTAR":0.0023110181,"MEAN_MOTION_DOT":0.00214089,"MEAN_MOTION_DDOT":0},{"OBJECT_NAME":"OBJECT BA","OBJECT_ID":"2023-091BA","EPOCH":"2026-03-09T22:25:33.906144","MEAN_MOTION":15.62263681,"ECCENTRICITY":0.00034332,"INCLINATION":97.5088,"RA_OF_ASC_NODE":144.8532,"ARG_OF_PERICENTER":52.4079,"MEAN_ANOMALY":307.749,"EPHEMERIS_TYPE":0,"CLASSIFICATION_TYPE":"U","NORAD_CAT_ID":57326,"ELEMENT_SET_NO":999,"REV_AT_EPOCH":14775,"BSTAR":0.001421456,"MEAN_MOTION_DOT":0.0012687,"MEAN_MOTION_DDOT":0}]
